[{"OBJECT_NAME":"DONGPO 08","OBJECT_ID":"2022-167E","EPOCH":"2026-03-09T22:57:52.742880","MEAN_MOTION":15.31542505,"ECCENTRICITY":0.00092155,"INCLINATION":97.6764,"RA_OF_ASC_NODE":233.3854,"ARG_OF_PERICENTER":153.9158,"MEAN_ANOMALY":206.2548,"EPHEMERIS_TYPE":0,"CLASSIFICATION_TYPE":"U","NORAD_CAT_ID":54686,"ELEMENT_SET_NO":999,"REV_AT_EPOCH":18012,"BSTAR":0.0004734784,"MEAN_MOTION_DOT":0.0001437,"MEAN_MOTION_DDOT":0},{"OBJECT_NAME":"STARLINK-30910","OBJECT_ID":"2023-178C","EPOCH":"2026-03-09T01:11:19.380768","MEAN_MOTION":15.30193467,"ECCENTRICITY":7.766e-5,"INCLINATION":53.1613,"RA_OF_ASC_NODE":4.0336,"ARG_OF_PERICENTER":92.6274,"MEAN_ANOMALY":267.4816,"EPHEMERIS_TYPE":0,"CLASSIFICATION_TYPE":"U","NORAD_CAT_ID":58376,"ELEMENT_SET_NO":999,"REV_AT_EPOCH":12979,"BSTAR":6.876037e-6,"MEAN_MOTION_DOT":-1.55e-6,"MEAN_MOTION_DDOT":0}]
